IRIDIUM 26              
1 24903U 97043A   25055.80410657  .00001142  00000+0  37890-3 0  9996
2 24903  86.4025 157.8083 0002327  96.4692 263.6770 14.36994051440604
IRIDIUM 22              
1 24907U 97043E   25055.71139547  .00000891  00000+0  30112-3 0  9996
2 24907  86.4032 161.2839 0002089  94.6774 265.4662 14.35823808440633
DUMMY MASS 1            
1 24925U 97048A   25055.82832562  .00001191  00000+0  13047-3 0  9992
2 24925  86.3402 187.2293 0006874 165.5831 194.5591 14.86816956488438
DUMMY MASS 2            
1 24926U 97048B   25055.77178956  .00001190  00000+0  13122-3 0  9990
2 24926  86.3401 188.8404 0007164 179.0442 181.0798 14.86569815488204
IRIDIUM 29              
1 24944U 97051A   25055.84302864  .00001318  00000+0  44441-3 0  9999
2 24944  86.4013 190.9642 0001828  93.0449 267.0957 14.36302669437365
IRIDIUM 33              
1 24946U 97051C   25055.91242230  .00000924  00000+0  31900-3 0  9997
2 24946  86.3929 190.1871 0009860  86.7969 273.4355 14.34779465436641
IRIDIUM 28              
1 24948U 97051E   25055.81952687  .00001070  00000+0  35309-3 0  9992
2 24948  86.4022 188.5566 0002481  94.0744 266.0737 14.37235211437704
IRIDIUM 36              
1 24967U 97056C   25055.86916518  .00001343  00000+0  44279-3 0  9995
2 24967  86.3965 220.1280 0002149  85.7944 274.3499 14.37434460436080
